      3.03          N: GNSS NAV DATA    S: SBAS             RINEX VERSION / TYPE
SKYDEL              OROLIA              08-Jan-23 09:59     PGM / RUN BY / DATE
                                                            END OF HEADER
S22 2023 01 08 09 59 00 0.000000000000E+00 0.000000000000E+00 3.594000000000E+04
    -3.389314029428E+04-1.599116250873E-05-8.400529623032E-10 3.300000000000E+01
     2.508087214176E+04-2.921506762505E-05-1.955777406693E-10 8.192000000000E+03
     0.000000000000E+00 0.000000000000E+00 0.000000000000E+00 0.000000000000E+00
S23 2023 01 08 09 59 00 0.000000000000E+00 0.000000000000E+00 3.594000000000E+04
     3.593067721992E+04 8.696035072207E-04-5.587935447693E-09 4.700000000000E+01
     2.208465959019E+04-1.063479909673E-03-3.489851951599E-08 8.192000000000E+03
     0.000000000000E+00 0.000000000000E+00 0.000000000000E+00 0.000000000000E+00
S26 2023 01 08 09 59 00 0.000000000000E+00 0.000000000000E+00 3.594000000000E+04
     1.852350627198E+04-1.588862441480E-03-1.724250614643E-08 4.700000000000E+01
     3.786247452028E+04 5.264069028199E-04 3.955699503422E-08 8.192000000000E+03
     0.000000000000E+00 0.000000000000E+00 0.000000000000E+00 0.000000000000E+00
S27 2023 01 08 09 59 00 4.889443516731E-07 3.547029336914E-11 3.594000000000E+04
     2.405200271376E+04-1.189288226888E-03 3.018146380782E-07 1.500000000000E+01
     3.460962647427E+04 3.174561377615E-03-5.846284329891E-08 4.096000000000E+03
    -2.367667060337E+01-1.052651732236E-03 1.260592052859E-07 0.000000000000E+00
S28 2023 01 08 09 59 00 4.437752068043E-07 8.458300726488E-11 3.594000000000E+04
     5.030140553843E+03 9.586430452764E-04 2.411520108581E-07 1.500000000000E+01
     4.187068749779E+04 1.554354730994E-03-1.979433000088E-08 4.096000000000E+03
     1.613004421894E-01 9.240335619587E-04-8.572591454481E-10 0.000000000000E+00
S30 2023 01 08 09 59 00 5.071051418781E-07 0.000000000000E+00 3.594000000000E+04
    -3.224918250932E+04 1.023272708058E-03-5.935411900282E-08 3.300000000000E+01
     2.716707884901E+04 3.660701699555E-04-5.428958684206E-08 8.192000000000E+03
    -7.329457743875E+02-1.723658805090E-02 3.894872934325E-06 0.000000000000E+00
S31 2023 01 08 09 59 00 6.007030606270E-08 9.094947017729E-12 3.594000000000E+04
    -1.912896055626E+04-5.845317617059E-04 6.535090506077E-09 1.500000000000E+01
    -3.758110743963E+04 3.030377887189E-04 1.121498644352E-08 2.000000000000E+00
     2.810847332374E+00 6.937089154462E-05-1.494112791534E-08 0.000000000000E+00
S32 2023 01 08 09 59 00 0.000000000000E+00 0.000000000000E+00 3.594000000000E+04
    -2.607590251812E+03 1.289050294086E-03 9.585963562131E-08 3.300000000000E+01
     4.209376014140E+04 7.272897772491E-04-2.381391823292E-08 8.192000000000E+03
     5.783362912531E+01 1.986190120806E-03-3.073044008488E-07 0.000000000000E+00
S33 2023 01 08 09 59 00 3.213062882423E-08 6.366462912410E-12 3.594000000000E+04
    -2.661824022646E+04-7.043186929077E-04 2.406910061836E-08 1.500000000000E+01
    -3.270943442193E+04 6.731184981763E-04 1.162383705378E-08 2.000000000000E+00
     2.643916187464E+01-7.832134973796E-04-1.405164748576E-07 0.000000000000E+00
S34 2023 01 08 09 59 00 0.000000000000E+00 0.000000000000E+00 3.594000000000E+04
    -1.104833403905E+03-1.419277507812E-04-2.830289304256E-09 3.300000000000E+01
     4.214854516037E+04-2.274830266833E-05 2.339482307434E-09 8.192000000000E+03
     0.000000000000E+00 0.000000000000E+00 0.000000000000E+00 0.000000000000E+00
S35 2023 01 08 09 59 00 3.213062882423E-08-1.818989403546E-12 3.594000000000E+04
    -2.419008730941E+04-1.385311264545E-03 6.413366645575E-08 1.500000000000E+01
    -3.455106699103E+04 1.272061962634E-03 2.866610884666E-08 2.000000000000E+00
     1.848925401507E+01-1.473450434605E-05-9.822372612689E-08 0.000000000000E+00
S36 2023 01 08 09 59 00 0.000000000000E+00 0.000000000000E+00 3.594000000000E+04
     4.200355560398E+04-7.079124450684E-06 4.805624485016E-10 4.700000000000E+01
     3.673851206345E+03 3.139340877533E-05 6.798654794693E-10 8.192000000000E+03
     0.000000000000E+00 0.000000000000E+00 0.000000000000E+00 0.000000000000E+00
S37 2023 01 08 09 59 00-9.536743164062E-07 0.000000000000E+00 3.594000000000E+04
    -2.542409249272E+04-6.896480936557E-04 8.450914174318E-08 3.300000000000E+01
     3.363464042447E+04 4.672153405845E-04 7.894076406956E-08 8.192000000000E+03
    -2.577565690339E+01-1.109079198719E-03 1.370784930259E-07 0.000000000000E+00
S43 2023 01 08 09 59 00 3.869645297527E-07 0.000000000000E+00 3.594000000000E+04
    -1.480308732107E+04-2.282068094239E-03 2.695359289646E-07 3.300000000000E+01
     3.946555521786E+04 1.482725512236E-03 1.907162368298E-07 8.192000000000E+03
     5.950426624724E+02 3.144291786168E-02-3.166278591380E-06 0.000000000000E+00
S44 2023 01 08 09 59 00-4.563480615616E-07 0.000000000000E+00 3.594000000000E+04
     7.262462195290E+03 1.519878203049E-03 2.261064946651E-07 4.700000000000E+01
     4.152962660976E+04 1.538504544646E-03-2.117641270161E-07 8.192000000000E+03
    -6.461253114800E+02 9.694354460231E-02 3.435613878537E-06 0.000000000000E+00
S48 2023 01 08 09 59 00 0.000000000000E+00 0.000000000000E+00 3.594000000000E+04
     4.156885848095E+04 8.345041349530E-04 2.684630453587E-08 0.000000000000E+00
    -7.018707114422E+03 9.327023075894E-04-1.032799482346E-07 2.000000000000E+00
    -1.259027058095E+01 4.446373531573E-04 6.698175775455E-08 0.000000000000E+00
